{"type": "FeatureCollection", "features": [ {"type": "Feature", "properties": {"norad_id": 28649, "name": "IRS-P5 (CARTOSAT-1)", "group": "resource", "lat": 21.292314448044873, "lon": -171.93090559813257, "alt_km": 597.1197721912295, "timestamp": "2025-12-04T07:39:35.826973+00:00", "meta": {"OBJECT_NAME": "IRS-P5 (CARTOSAT-1)", "OBJECT_ID": "2005-017A", "EPOCH": "2025-12-03T19:40:19.815456", "MEAN_MOTION": 14.90354061, "ECCENTRICITY": 0.00017406, "INCLINATION": 97.55, "RA_OF_ASC_NODE": 4.6288, "ARG_OF_PERICENTER": 51.5682, "MEAN_ANOMALY": 308.5693, "EPHEMERIS_TYPE": 0, "CLASSIFICATION_TYPE": "U", "NORAD_CAT_ID": 28649, "ELEMENT_SET_NO": 999, "REV_AT_EPOCH": 11471, "BSTAR": 0.00032668963, "MEAN_MOTION_DOT": 3.126e-05, "MEAN_MOTION_DDOT": 0}, "tle": {"line1": "1 28649U 05017A   25337.81967379  .00003126  00000+0  32669-3 0  9992", "line2": "2 28649  97.5500   4.6288 0001740  51.5682 308.5693 14.90354061114715"}}, "geometry": {"type": "Point", "coordinates": [-171.93090559813257, 21.292314448044873]}}, {"type": "Feature", "properties": {"norad_id": 28893, "name": "SINAH 1", "group": "resource", "lat": -50.7670716827217, "lon": -83.39374226045469, "alt_km": 683.6362597276375, "timestamp": "2025-12-04T07:39:35.826982+00:00", "meta": {"OBJECT_NAME": "SINAH 1", "OBJECT_ID": "2005-043D", "EPOCH": "2025-12-03T22:24:18.099648", "MEAN_MOTION": 14.63947014, "ECCENTRICITY": 0.00148573, "INCLINATION": 98.26, "RA_OF_ASC_NODE": 106.4676, "ARG_OF_PERICENTER": 163.4237, "MEAN_ANOMALY": 196.7454, "EPHEMERIS_TYPE": 0, "CLASSIFICATION_TYPE": "U", "NORAD_CAT_ID": 28893, "ELEMENT_SET_NO": 999, "REV_AT_EPOCH": 7195, "BSTAR": 0.00019575721, "MEAN_MOTION_DOT": 9.77e-06, "MEAN_MOTION_DDOT": 0}, "tle": {"line1": "1 28893U 05043D   25337.93354282  .00000977  00000+0  19576-3 0  9991", "line2": "2 28893  98.2600 106.4676 0014857 163.4237 196.7454 14.63947014 71955"}}, "geometry": {"type": "Point", "coordinates": [-83.39374226045469, -50.7670716827217]}}, {"type": "Feature", "properties": {"norad_id": 29079, "name": "EROS B", "group": "resource", "lat": 13.230052808750255, "lon": 92.7733223130049, "alt_km": 375.59134407590045, "timestamp": "2025-12-04T07:39:35.826992+00:00", "meta": {"OBJECT_NAME": "EROS B", "OBJECT_ID": "2006-014A", "EPOCH": "2025-12-03T22:23:42.788832", "MEAN_MOTION": 15.64841209, "ECCENTRICITY": 0.0002134, "INCLINATION": 97.349, "RA_OF_ASC_NODE": 94.1097, "ARG_OF_PERICENTER": 237.1337, "MEAN_ANOMALY": 122.9717, "EPHEMERIS_TYPE": 0, "CLASSIFICATION_TYPE": "U", "NORAD_CAT_ID": 29079, "ELEMENT_SET_NO": 999, "REV_AT_EPOCH": 8942, "BSTAR": 0.0021031841, "MEAN_MOTION_DOT": 0.00209725, "MEAN_MOTION_DDOT": 0}, "tle": {"line1": "1 29079U 06014A   25337.93313413  .00209725  00000+0  21032-2 0  9999", "line2": "2 29079  97.3490  94.1097 0002134 237.1337 122.9717 15.64841209 89429"}}, "geometry": {"type": "Point", "coordinates": [92.7733223130049, 13.230052808750255]}}, {"type": "Feature", "properties": {"norad_id": 29228, "name": "RESURS-DK 1", "group": "resource", "lat": 53.45096504522998, "lon": -85.94927060490278, "alt_km": 528.5415197917273, "timestamp": "2025-12-04T07:39:35.827002+00:00", "meta": {"OBJECT_NAME": "RESURS-DK 1", "OBJECT_ID": "2006-021A", "EPOCH": "2025-12-03T20:00:42.744384", "MEAN_MOTION": 15.12079711, "ECCENTRICITY": 0.00078238, "INCLINATION": 69.9329, "RA_OF_ASC_NODE": 124.8507, "ARG_OF_PERICENTER": 265.1506, "MEAN_ANOMALY": 94.8767, "EPHEMERIS_TYPE": 0, "CLASSIFICATION_TYPE": "U", "NORAD_CAT_ID": 29228, "ELEMENT_SET_NO": 999, "REV_AT_EPOCH": 7303, "BSTAR": 0.00033225758, "MEAN_MOTION_DOT": 5.63e-05, "MEAN_MOTION_DDOT": 0}, "tle": {"line1": "1 29228U 06021A   25337.83382806  .00005630  00000+0  33226-3 0  9992", "line2": "2 29228  69.9329 124.8507 0007823 265.1506  94.8767 15.12079711 73033"}}, "geometry": {"type": "Point", "coordinates": [-85.94927060490278, 53.45096504522998]}}, {"type": "Feature", "properties": {"norad_id": 29268, "name": "ARIRANG-2 (KOMPSAT-2)", "group": "resource", "lat": 58.055361452823576, "lon": -0.05390897774660504, "alt_km": 681.1164479857216, "timestamp": "2025-12-04T07:39:35.827011+00:00", "meta": {"OBJECT_NAME": "ARIRANG-2 (KOMPSAT-2)", "OBJECT_ID": "2006-031A", "EPOCH": "2025-12-03T23:28:45.024096", "MEAN_MOTION": 14.64480919, "ECCENTRICITY": 0.00139665, "INCLINATION": 97.8264, "RA_OF_ASC_NODE": 166.8783, "ARG_OF_PERICENTER": 338.1481, "MEAN_ANOMALY": 146.7616, "EPHEMERIS_TYPE": 0, "CLASSIFICATION_TYPE": "U", "NORAD_CAT_ID": 29268, "ELEMENT_SET_NO": 999, "REV_AT_EPOCH": 3290, "BSTAR": 0.00012787077, "MEAN_MOTION_DOT": 6.33e-06, "MEAN_MOTION_DDOT": 0}, "tle": {"line1": "1 29268U 06031A   25337.97829889  .00000633  00000+0  12787-3 0  9996", "line2": "2 29268  97.8264 166.8783 0013966 338.1481 146.7616 14.64480919 32908"}}, "geometry": {"type": "Point", "coordinates": [-0.05390897774660504, 58.055361452823576]}}, {"type": "Feature", "properties": {"norad_id": 29709, "name": "LAPAN-TUBSAT", "group": "resource", "lat": 44.89282234215605, "lon": 156.48572384464472, "alt_km": 599.9758612285896, "timestamp": "2025-12-04T07:39:35.827021+00:00", "meta": {"OBJECT_NAME": "LAPAN-TUBSAT", "OBJECT_ID": "2007-001A", "EPOCH": "2025-12-03T22:58:32.596608", "MEAN_MOTION": 14.85648735, "ECCENTRICITY": 0.00136008, "INCLINATION": 98.1252, "RA_OF_ASC_NODE": 327.9336, "ARG_OF_PERICENTER": 100.1495, "MEAN_ANOMALY": 260.1254, "EPHEMERIS_TYPE": 0, "CLASSIFICATION_TYPE": "U", "NORAD_CAT_ID": 29709, "ELEMENT_SET_NO": 999, "REV_AT_EPOCH": 2216, "BSTAR": 0.00012671571, "MEAN_MOTION_DOT": 1.042e-05, "MEAN_MOTION_DDOT": 0}, "tle": {"line1": "1 29709U 07001A   25337.95732172  .00001042  00000+0  12672-3 0  9998", "line2": "2 29709  98.1252 327.9336 0013600 100.1495 260.1254 14.85648735 22161"}}, "geometry": {"type": "Point", "coordinates": [156.48572384464472, 44.89282234215605]}}, {"type": "Feature", "properties": {"norad_id": 31113, "name": "HAIYANG-1B", "group": "resource", "lat": -54.47920194360173, "lon": 131.10052978401004, "alt_km": 805.914050757412, "timestamp": "2025-12-04T07:39:35.827030+00:00", "meta": {"OBJECT_NAME": "HAIYANG-1B", "OBJECT_ID": "2007-010A", "EPOCH": "2025-12-03T22:10:25.439520", "MEAN_MOTION": 14.3096051, "ECCENTRICITY": 0.00145762, "INCLINATION": 98.3307, "RA_OF_ASC_NODE": 322.5666, "ARG_OF_PERICENTER": 62.3758, "MEAN_ANOMALY": 297.8904, "EPHEMERIS_TYPE": 0, "CLASSIFICATION_TYPE": "U", "NORAD_CAT_ID": 31113, "ELEMENT_SET_NO": 999, "REV_AT_EPOCH": 97270, "BSTAR": 0.00011316257, "MEAN_MOTION_DOT": 2.56e-06, "MEAN_MOTION_DDOT": 0}, "tle": {"line1": "1 31113U 07010A   25337.92390555  .00000256  00000+0  11316-3 0  9992", "line2": "2 31113  98.3307 322.5666 0014576  62.3758 297.8904 14.30960510972708"}}, "geometry": {"type": "Point", "coordinates": [131.10052978401004, -54.47920194360173]}}, {"type": "Feature", "properties": {"norad_id": 31598, "name": "COSMO-SKYMED 1", "group": "resource", "lat": 33.32792386138122, "lon": -11.108267368312902, "alt_km": 577.9019470134153, "timestamp": "2025-12-04T07:39:35.827039+00:00", "meta": {"OBJECT_NAME": "COSMO-SKYMED 1", "OBJECT_ID": "2007-023A", "EPOCH": "2025-12-03T22:58:49.282176", "MEAN_MOTION": 14.95663454, "ECCENTRICITY": 0.00013962, "INCLINATION": 97.884, "RA_OF_ASC_NODE": 163.2998, "ARG_OF_PERICENTER": 80.2303, "MEAN_ANOMALY": 279.9075, "EPHEMERIS_TYPE": 0, "CLASSIFICATION_TYPE": "U", "NORAD_CAT_ID": 31598, "ELEMENT_SET_NO": 999, "REV_AT_EPOCH": 59, "BSTAR": 0.00059473811, "MEAN_MOTION_DOT": 6.558e-05, "MEAN_MOTION_DDOT": 0}, "tle": {"line1": "1 31598U 07023A   25337.95751484  .00006558  00000+0  59474-3 0  9996", "line2": "2 31598  97.8840 163.2998 0001396  80.2303 279.9075 14.95663454   597"}}, "geometry": {"type": "Point", "coordinates": [-11.108267368312902, 33.32792386138122]}}, {"type": "Feature", "properties": {"norad_id": 31698, "name": "TERRASAR-X", "group": "resource", "lat": 6.744143670318065, "lon": 164.70977294771507, "alt_km": 510.49369818409104, "timestamp": "2025-12-04T07:39:35.827049+00:00", "meta": {"OBJECT_NAME": "TERRASAR-X", "OBJECT_ID": "2007-026A", "EPOCH": "2025-12-03T15:05:32.684928", "MEAN_MOTION": 15.19160309, "ECCENTRICITY": 0.0001999, "INCLINATION": 97.4447, "RA_OF_ASC_NODE": 343.1435, "ARG_OF_PERICENTER": 87.129, "MEAN_ANOMALY": 273.0173, "EPHEMERIS_TYPE": 0, "CLASSIFICATION_TYPE": "U", "NORAD_CAT_ID": 31698, "ELEMENT_SET_NO": 999, "REV_AT_EPOCH": 2353, "BSTAR": 0.00010298495, "MEAN_MOTION_DOT": 2.097e-05, "MEAN_MOTION_DDOT": 0}, "tle": {"line1": "1 31698U 07026A   25337.62885052  .00002097  00000+0  10298-3 0  9998", "line2": "2 31698  97.4447 343.1435 0001999  87.1290 273.0173 15.19160309 23533"}}, "geometry": {"type": "Point", "coordinates": [164.70977294771507, 6.744143670318065]}}, {"type": "Feature", "properties": {"norad_id": 32060, "name": "WORLDVIEW-1 (WV-1)", "group": "resource", "lat": 9.765872892117526, "lon": 94.64125601819795, "alt_km": 494.0533898614749, "timestamp": "2025-12-04T07:39:35.827058+00:00", "meta": {"OBJECT_NAME": "WORLDVIEW-1 (WV-1)", "OBJECT_ID": "2007-041A", "EPOCH": "2025-12-03T22:09:53.515584", "MEAN_MOTION": 15.24458131, "ECCENTRICITY": 7.65e-05, "INCLINATION": 97.3841, "RA_OF_ASC_NODE": 95.5304, "ARG_OF_PERICENTER": 94.8548, "MEAN_ANOMALY": 265.2777, "EPHEMERIS_TYPE": 0, "CLASSIFICATION_TYPE": "U", "NORAD_CAT_ID": 32060, "ELEMENT_SET_NO": 999, "REV_AT_EPOCH": 1313, "BSTAR": 0.0006148464, "MEAN_MOTION_DOT": 0.00015043, "MEAN_MOTION_DDOT": 0}, "tle": {"line1": "1 32060U 07041A   25337.92353606  .00015043  00000+0  61485-3 0  9996", "line2": "2 32060  97.3841  95.5304 0000765  94.8548 265.2777 15.24458131 13135"}}, "geometry": {"type": "Point", "coordinates": [94.64125601819795, 9.765872892117526]}}]}